{"fetched_at":"2026-07-20T18:29:31.742Z","source":"https://celestrak.org/NORAD/elements/gp.php?NAME=KINEIS&FORMAT=JSON","constellation":"kineis","records":[{"OBJECT_NAME":"KINEIS-2D","OBJECT_ID":"2025-028C","EPOCH":"2026-07-20T03:22:23.948544","CLASSIFICATION_TYPE":"U","MEAN_MOTION":14.75777173,"ECCENTRICITY":0.00047986,"INCLINATION":97.9269,"RA_OF_ASC_NODE":252.9505,"ARG_OF_PERICENTER":98.911,"MEAN_ANOMALY":261.2643,"EPHEMERIS_TYPE":0,"NORAD_CAT_ID":62930,"ELEMENT_SET_NO":999,"REV_AT_EPOCH":7757,"BSTAR":0.00011522212,"MEAN_MOTION_DOT":0.00000739,"MEAN_MOTION_DDOT":0},{"OBJECT_NAME":"KINEIS-2E","OBJECT_ID":"2025-028D","EPOCH":"2026-07-20T03:33:27.972288","CLASSIFICATION_TYPE":"U","MEAN_MOTION":14.77095033,"ECCENTRICITY":0.00020898,"INCLINATION":97.8937,"RA_OF_ASC_NODE":252.0783,"ARG_OF_PERICENTER":90.5865,"MEAN_ANOMALY":269.5585,"EPHEMERIS_TYPE":0,"NORAD_CAT_ID":62931,"ELEMENT_SET_NO":999,"REV_AT_EPOCH":7764,"BSTAR":0.00010857589,"MEAN_MOTION_DOT":0.00000717,"MEAN_MOTION_DDOT":0},{"OBJECT_NAME":"KINEIS-2A","OBJECT_ID":"2025-028E","EPOCH":"2026-07-20T02:22:55.200864","CLASSIFICATION_TYPE":"U","MEAN_MOTION":14.7345765,"ECCENTRICITY":0.00058407,"INCLINATION":98.1284,"RA_OF_ASC_NODE":256.5372,"ARG_OF_PERICENTER":71.9953,"MEAN_ANOMALY":288.1891,"EPHEMERIS_TYPE":0,"NORAD_CAT_ID":62932,"ELEMENT_SET_NO":999,"REV_AT_EPOCH":7745,"BSTAR":0.00010982087,"MEAN_MOTION_DOT":0.00000662,"MEAN_MOTION_DDOT":0},{"OBJECT_NAME":"KINEIS-2B","OBJECT_ID":"2025-028G","EPOCH":"2026-07-20T03:28:08.706144","CLASSIFICATION_TYPE":"U","MEAN_MOTION":14.7345807,"ECCENTRICITY":0.00046317,"INCLINATION":97.9651,"RA_OF_ASC_NODE":253.4067,"ARG_OF_PERICENTER":62.4684,"MEAN_ANOMALY":297.6994,"EPHEMERIS_TYPE":0,"NORAD_CAT_ID":62934,"ELEMENT_SET_NO":999,"REV_AT_EPOCH":7751,"BSTAR":0.00010576423,"MEAN_MOTION_DOT":0.00000637,"MEAN_MOTION_DDOT":0},{"OBJECT_NAME":"KINEIS-4E","OBJECT_ID":"2025-056A","EPOCH":"2026-07-20T06:41:21.778656","CLASSIFICATION_TYPE":"U","MEAN_MOTION":14.72311252,"ECCENTRICITY":0.00028466,"INCLINATION":97.9073,"RA_OF_ASC_NODE":324.262,"ARG_OF_PERICENTER":77.5919,"MEAN_ANOMALY":282.5607,"EPHEMERIS_TYPE":0,"NORAD_CAT_ID":63300,"ELEMENT_SET_NO":999,"REV_AT_EPOCH":7199,"BSTAR":0.0001346381,"MEAN_MOTION_DOT":0.00000803,"MEAN_MOTION_DDOT":0},{"OBJECT_NAME":"KINEIS-4C","OBJECT_ID":"2025-056B","EPOCH":"2026-07-20T06:59:05.009280","CLASSIFICATION_TYPE":"U","MEAN_MOTION":14.72333346,"ECCENTRICITY":0.00031924,"INCLINATION":97.9126,"RA_OF_ASC_NODE":324.5264,"ARG_OF_PERICENTER":193.8917,"MEAN_ANOMALY":166.2203,"EPHEMERIS_TYPE":0,"NORAD_CAT_ID":63301,"ELEMENT_SET_NO":999,"REV_AT_EPOCH":7200,"BSTAR":0.00013999508,"MEAN_MOTION_DOT":0.00000837,"MEAN_MOTION_DDOT":0},{"OBJECT_NAME":"KINEIS-4D","OBJECT_ID":"2025-056C","EPOCH":"2026-07-20T07:03:51.097824","CLASSIFICATION_TYPE":"U","MEAN_MOTION":14.72211896,"ECCENTRICITY":0.00018977,"INCLINATION":97.9047,"RA_OF_ASC_NODE":324.4975,"ARG_OF_PERICENTER":195.0403,"MEAN_ANOMALY":165.0748,"EPHEMERIS_TYPE":0,"NORAD_CAT_ID":63302,"ELEMENT_SET_NO":999,"REV_AT_EPOCH":7200,"BSTAR":0.00014749471,"MEAN_MOTION_DOT":0.00000882,"MEAN_MOTION_DDOT":0},{"OBJECT_NAME":"KINEIS-4A","OBJECT_ID":"2025-056D","EPOCH":"2026-07-20T07:54:40.790592","CLASSIFICATION_TYPE":"U","MEAN_MOTION":14.72292336,"ECCENTRICITY":0.00024156,"INCLINATION":97.9141,"RA_OF_ASC_NODE":324.4892,"ARG_OF_PERICENTER":143.6696,"MEAN_ANOMALY":216.4676,"EPHEMERIS_TYPE":0,"NORAD_CAT_ID":63303,"ELEMENT_SET_NO":999,"REV_AT_EPOCH":7200,"BSTAR":0.00013541703,"MEAN_MOTION_DOT":0.00000807,"MEAN_MOTION_DDOT":0},{"OBJECT_NAME":"KINEIS-4B","OBJECT_ID":"2025-056E","EPOCH":"2026-07-19T07:01:39.857088","CLASSIFICATION_TYPE":"U","MEAN_MOTION":14.72334908,"ECCENTRICITY":0.00056359,"INCLINATION":97.9152,"RA_OF_ASC_NODE":323.5381,"ARG_OF_PERICENTER":179.926,"MEAN_ANOMALY":180.1949,"EPHEMERIS_TYPE":0,"NORAD_CAT_ID":63304,"ELEMENT_SET_NO":999,"REV_AT_EPOCH":7184,"BSTAR":0.00011799308,"MEAN_MOTION_DOT":0.00000698,"MEAN_MOTION_DDOT":0}]}
