KINEIS-2D               
1 62930U 25028C   26201.14055496  .00000739  00000+0  11522-3 0  9994
2 62930  97.9269 252.9505 0004798  98.9110 261.2643 14.75777173 77577
KINEIS-2E               
1 62931U 25028D   26201.14824042  .00000717  00000+0  10858-3 0  9993
2 62931  97.8937 252.0783 0002089  90.5865 269.5585 14.77095033 77648
KINEIS-2A               
1 62932U 25028E   26201.09925001  .00000662  00000+0  10982-3 0  9992
2 62932  98.1284 256.5372 0005840  71.9953 288.1891 14.73457650 77459
KINEIS-2B               
1 62934U 25028G   26201.14454521  .00000637  00000+0  10576-3 0  9995
2 62934  97.9651 253.4067 0004631  62.4684 297.6994 14.73458070 77519
KINEIS-4E               
1 63300U 25056A   26201.27872429  .00000803  00000+0  13464-3 0  9993
2 63300  97.9073 324.2620 0002846  77.5919 282.5607 14.72311252 71990
KINEIS-4C               
1 63301U 25056B   26201.29103020  .00000837  00000+0  14000-3 0  9994
2 63301  97.9126 324.5264 0003192 193.8917 166.2203 14.72333346 72003
KINEIS-4D               
1 63302U 25056C   26201.29434141  .00000882  00000+0  14749-3 0  9996
2 63302  97.9047 324.4975 0001897 195.0403 165.0748 14.72211896 72004
KINEIS-4A               
1 63303U 25056D   26201.32963878  .00000807  00000+0  13542-3 0  9992
2 63303  97.9141 324.4892 0002415 143.6696 216.4676 14.72292336 72007
KINEIS-4B               
1 63304U 25056E   26200.29282242  .00000698  00000+0  11799-3 0  9997
2 63304  97.9152 323.5381 0005635 179.9260 180.1949 14.72334908 71842
